[{"OBJECT_NAME":"NESS","OBJECT_ID":"2023-155E","EPOCH":"2026-03-09T18:20:54.923712","MEAN_MOTION":15.26794015,"ECCENTRICITY":0.00068914,"INCLINATION":97.5941,"RA_OF_ASC_NODE":152.6141,"ARG_OF_PERICENTER":179.8776,"MEAN_ANOMALY":180.2465,"EPHEMERIS_TYPE":0,"CLASSIFICATION_TYPE":"U","NORAD_CAT_ID":58020,"ELEMENT_SET_NO":999,"REV_AT_EPOCH":13330,"BSTAR":0.00074047066,"MEAN_MOTION_DOT":0.00019469,"MEAN_MOTION_DDOT":0},{"OBJECT_NAME":"STARLINK-34048","OBJECT_ID":"2025-092N","EPOCH":"2026-03-09T07:33:41.859648","MEAN_MOTION":15.27586411,"ECCENTRICITY":7.705e-5,"INCLINATION":42.9972,"RA_OF_ASC_NODE":174.9792,"ARG_OF_PERICENTER":251.6672,"MEAN_ANOMALY":108.4096,"EPHEMERIS_TYPE":0,"CLASSIFICATION_TYPE":"U","NORAD_CAT_ID":63816,"ELEMENT_SET_NO":999,"REV_AT_EPOCH":4860,"BSTAR":0.00089271593,"MEAN_MOTION_DOT":0.0002439,"MEAN_MOTION_DDOT":0}]
